[{"OBJECT_NAME":"YAOGAN-50 01","OBJECT_ID":"2026-006A","EPOCH":"2026-03-09T21:57:44.750592","MEAN_MOTION":13.83251108,"ECCENTRICITY":0.00011096,"INCLINATION":142.0346,"RA_OF_ASC_NODE":96.0351,"ARG_OF_PERICENTER":270.9545,"MEAN_ANOMALY":89.1047,"EPHEMERIS_TYPE":0,"CLASSIFICATION_TYPE":"U","NORAD_CAT_ID":67433,"ELEMENT_SET_NO":999,"REV_AT_EPOCH":768,"BSTAR":0.00014147475,"MEAN_MOTION_DOT":3.45e-6,"MEAN_MOTION_DDOT":0},{"OBJECT_NAME":"ATLAS CENTAUR 2 DEB","OBJECT_ID":"1963-047F","EPOCH":"2026-03-09T07:28:06.080736","MEAN_MOTION":13.40166529,"ECCENTRICITY":0.07171741,"INCLINATION":30.4785,"RA_OF_ASC_NODE":167.5855,"ARG_OF_PERICENTER":23.8136,"MEAN_ANOMALY":339.3995,"EPHEMERIS_TYPE":0,"CLASSIFICATION_TYPE":"U","NORAD_CAT_ID":700,"ELEMENT_SET_NO":999,"REV_AT_EPOCH":3672,"BSTAR":7.6302113e-5,"MEAN_MOTION_DOT":2.5e-6,"MEAN_MOTION_DDOT":0}]
